MOVE-II                 
1 43780U 18099Y   23117.18269953  .00009733  00000+0  73129-3 0  9992
2 43780  97.5762 182.3158 0007718 331.3631  28.7170 15.02767600240073
SPACEBEE-7              
1 43816U 18099BL  23116.12562107  .00007740  00000+0  59795-3 0  9991
2 43816  97.6020 182.0006 0012886 274.0116  85.9636 15.01739888239495
SPACEBEE-5              
1 43817U 18099BM  23117.13219121  .00029300  00000+0  16083-2 0  9997
2 43817  97.5944 189.1966 0003836 238.3835 121.7023 15.14085881239961
SPACEBEE-6              
1 43818U 18099BN  23116.12507964  .00011742  00000+0  83511-3 0  9993
2 43818  97.5926 183.8465 0010779 289.9639  70.0426 15.04766709239737
SHIELDS 1               
1 43850U 18104B   23116.55017675  .00007306  00000+0  26741-3 0  9991
2 43850  85.0304 203.9686 0013564 179.8872 180.2379 15.27761935242225
STF-1                   
1 43852U 18104D   23117.18559941  .00030113  00000+0  75585-3 0  9992
2 43852  85.0282 202.0069 0012211 182.0972 178.0230 15.39785137242541
ZACUBE-2                
1 43907U 18111AH  23117.19413329  .00024293  00000+0  64796-3 0  9995
2 43907  97.1462 358.0792 0017051  46.4369  75.6410 15.37983893241303
LUME 1                  
1 43908U 18111AJ  23117.17078762  .00031540  00000+0  70690-3 0  9995
2 43908  97.1469   1.2749 0014281  35.9110 324.3095 15.43258814241510
MOVE-IIB                
1 44398U 19038N   23116.70232811  .00040439  00000+0  11586-2 0  9998
2 44398  97.6602  97.2686 0018434 112.8665 247.4527 15.35633008210757
SONATE                  
1 44400U 19038Q   23117.17257856  .00009890  00000+0  45637-3 0  9991
2 44400  97.6811  93.8212 0022940 126.2167 234.1192 15.20203695210483
LUCKY-7                 
1 44406U 19038W   23116.48873551  .00013175  00000+0  56579-3 0  9994
2 44406  97.6782  94.2135 0021596 123.7458 236.5840 15.22613700210453
BEESAT 9                
1 44412U 19038AC  23116.69908940  .00022069  00000+0  81754-3 0  9990
2 44412  97.6731  95.7506 0018745 122.1106 238.1955 15.27495685210299
JAISAT-1                
1 44419U 19038F   23116.72543677  .00020743  00000+0  76083-3 0  9999
2 44419  97.6730  96.8358 0018127 118.7376 241.5687 15.27846956210679
DUCHIFAT-3              
1 44854U 19089C   23117.17744880  .00008640  00000+0  59424-3 0  9999
2 44854  36.9637  35.9622 0010885 263.7040 242.5983 15.05440146185144
EYESAT-NANO             
1 44877U 19092E   23116.79990289  .00039342  00000+0  10582-2 0  9995
2 44877  97.4611 306.2536 0006955 314.6087  45.4590 15.37754313186190
M2 PATHFINDER           
1 45727U 20037E   23116.75532517  .00005142  00000+0  48997-3 0  9996
2 45727  97.7530 292.1431 0013214  77.4344 282.8328 14.93739791153566
NETSAT-4                
1 46504U 20068U   23116.59675928  .00009752  00000+0  65489-3 0  9996
2 46504  97.7580  61.9564 0011614 355.1166   5.0008 15.06960891141136
