[{"OBJECT_NAME":"MOVE-II","OBJECT_ID":"2018-099Y","EPOCH":"2023-04-27T04:23:05.239392","MEAN_MOTION":15.027676,"ECCENTRICITY":0.0007718,"INCLINATION":97.5762,"RA_OF_ASC_NODE":182.3158,"ARG_OF_PERICENTER":331.3631,"MEAN_ANOMALY":28.717,"EPHEMERIS_TYPE":0,"CLASSIFICATION_TYPE":"U","NORAD_CAT_ID":43780,"ELEMENT_SET_NO":999,"REV_AT_EPOCH":24007,"BSTAR":0.00073129,"MEAN_MOTION_DOT":9.733e-5,"MEAN_MOTION_DDOT":0},{"OBJECT_NAME":"SPACEBEE-7","OBJECT_ID":"2018-099BL","EPOCH":"2023-04-26T03:00:53.660448","MEAN_MOTION":15.01739888,"ECCENTRICITY":0.0012886,"INCLINATION":97.602,"RA_OF_ASC_NODE":182.0006,"ARG_OF_PERICENTER":274.0116,"MEAN_ANOMALY":85.9636,"EPHEMERIS_TYPE":0,"CLASSIFICATION_TYPE":"U","NORAD_CAT_ID":43816,"ELEMENT_SET_NO":999,"REV_AT_EPOCH":23949,"BSTAR":0.00059795,"MEAN_MOTION_DOT":7.74e-5,"MEAN_MOTION_DDOT":0},{"OBJECT_NAME":"SPACEBEE-5","OBJECT_ID":"2018-099BM","EPOCH":"2023-04-27T03:10:21.320544","MEAN_MOTION":15.14085881,"ECCENTRICITY":0.0003836,"INCLINATION":97.5944,"RA_OF_ASC_NODE":189.1966,"ARG_OF_PERICENTER":238.3835,"MEAN_ANOMALY":121.7023,"EPHEMERIS_TYPE":0,"CLASSIFICATION_TYPE":"U","NORAD_CAT_ID":43817,"ELEMENT_SET_NO":999,"REV_AT_EPOCH":23996,"BSTAR":0.0016083,"MEAN_MOTION_DOT":0.000293,"MEAN_MOTION_DDOT":0},{"OBJECT_NAME":"SPACEBEE-6","OBJECT_ID":"2018-099BN","EPOCH":"2023-04-26T03:00:06.880896","MEAN_MOTION":15.04766709,"ECCENTRICITY":0.0010779,"INCLINATION":97.5926,"RA_OF_ASC_NODE":183.8465,"ARG_OF_PERICENTER":289.9639,"MEAN_ANOMALY":70.0426,"EPHEMERIS_TYPE":0,"CLASSIFICATION_TYPE":"U","NORAD_CAT_ID":43818,"ELEMENT_SET_NO":999,"REV_AT_EPOCH":23973,"BSTAR":0.00083511,"MEAN_MOTION_DOT":0.00011742,"MEAN_MOTION_DDOT":0},{"OBJECT_NAME":"SHIELDS 1","OBJECT_ID":"2018-104B","EPOCH":"2023-04-26T13:12:15.271200","MEAN_MOTION":15.27761935,"ECCENTRICITY":0.0013564,"INCLINATION":85.0304,"RA_OF_ASC_NODE":203.9686,"ARG_OF_PERICENTER":179.8872,"MEAN_ANOMALY":180.2379,"EPHEMERIS_TYPE":0,"CLASSIFICATION_TYPE":"U","NORAD_CAT_ID":43850,"ELEMENT_SET_NO":999,"REV_AT_EPOCH":24222,"BSTAR":0.00026741,"MEAN_MOTION_DOT":7.306e-5,"MEAN_MOTION_DDOT":0},{"OBJECT_NAME":"STF-1","OBJECT_ID":"2018-104D","EPOCH":"2023-04-27T04:27:15.789024","MEAN_MOTION":15.39785137,"ECCENTRICITY":0.0012211,"INCLINATION":85.0282,"RA_OF_ASC_NODE":202.0069,"ARG_OF_PERICENTER":182.0972,"MEAN_ANOMALY":178.023,"EPHEMERIS_TYPE":0,"CLASSIFICATION_TYPE":"U","NORAD_CAT_ID":43852,"ELEMENT_SET_NO":999,"REV_AT_EPOCH":24254,"BSTAR":0.00075585,"MEAN_MOTION_DOT":0.00030113,"MEAN_MOTION_DDOT":0},{"OBJECT_NAME":"ZACUBE-2","OBJECT_ID":"2018-111AH","EPOCH":"2023-04-27T04:39:33.116256","MEAN_MOTION":15.37983893,"ECCENTRICITY":0.0017051,"INCLINATION":97.1462,"RA_OF_ASC_NODE":358.0792,"ARG_OF_PERICENTER":46.4369,"MEAN_ANOMALY":75.641,"EPHEMERIS_TYPE":0,"CLASSIFICATION_TYPE":"U","NORAD_CAT_ID":43907,"ELEMENT_SET_NO":999,"REV_AT_EPOCH":24130,"BSTAR":0.00064796,"MEAN_MOTION_DOT":0.00024293,"MEAN_MOTION_DDOT":0},{"OBJECT_NAME":"LUME 1","OBJECT_ID":"2018-111AJ","EPOCH":"2023-04-27T04:05:56.050368","MEAN_MOTION":15.43258814,"ECCENTRICITY":0.0014281,"INCLINATION":97.1469,"RA_OF_ASC_NODE":1.2749,"ARG_OF_PERICENTER":35.911,"MEAN_ANOMALY":324.3095,"EPHEMERIS_TYPE":0,"CLASSIFICATION_TYPE":"U","NORAD_CAT_ID":43908,"ELEMENT_SET_NO":999,"REV_AT_EPOCH":24151,"BSTAR":0.0007069,"MEAN_MOTION_DOT":0.0003154,"MEAN_MOTION_DDOT":0},{"OBJECT_NAME":"MOVE-IIB","OBJECT_ID":"2019-038N","EPOCH":"2023-04-26T16:51:21.148704","MEAN_MOTION":15.35633008,"ECCENTRICITY":0.0018434,"INCLINATION":97.6602,"RA_OF_ASC_NODE":97.2686,"ARG_OF_PERICENTER":112.8665,"MEAN_ANOMALY":247.4527,"EPHEMERIS_TYPE":0,"CLASSIFICATION_TYPE":"U","NORAD_CAT_ID":44398,"ELEMENT_SET_NO":999,"REV_AT_EPOCH":21075,"BSTAR":0.0011586,"MEAN_MOTION_DOT":0.00040439,"MEAN_MOTION_DDOT":0},{"OBJECT_NAME":"SONATE","OBJECT_ID":"2019-038Q","EPOCH":"2023-04-27T04:08:30.787584","MEAN_MOTION":15.20203695,"ECCENTRICITY":0.002294,"INCLINATION":97.6811,"RA_OF_ASC_NODE":93.8212,"ARG_OF_PERICENTER":126.2167,"MEAN_ANOMALY":234.1192,"EPHEMERIS_TYPE":0,"CLASSIFICATION_TYPE":"U","NORAD_CAT_ID":44400,"ELEMENT_SET_NO":999,"REV_AT_EPOCH":21048,"BSTAR":0.00045637,"MEAN_MOTION_DOT":9.89e-5,"MEAN_MOTION_DDOT":0},{"OBJECT_NAME":"LUCKY-7","OBJECT_ID":"2019-038W","EPOCH":"2023-04-26T11:43:46.748064","MEAN_MOTION":15.226137,"ECCENTRICITY":0.0021596,"INCLINATION":97.6782,"RA_OF_ASC_NODE":94.2135,"ARG_OF_PERICENTER":123.7458,"MEAN_ANOMALY":236.584,"EPHEMERIS_TYPE":0,"CLASSIFICATION_TYPE":"U","NORAD_CAT_ID":44406,"ELEMENT_SET_NO":999,"REV_AT_EPOCH":21045,"BSTAR":0.00056579,"MEAN_MOTION_DOT":0.00013175,"MEAN_MOTION_DDOT":0},{"OBJECT_NAME":"BEESAT 9","OBJECT_ID":"2019-038AC","EPOCH":"2023-04-26T16:46:41.324160","MEAN_MOTION":15.27495685,"ECCENTRICITY":0.0018745,"INCLINATION":97.6731,"RA_OF_ASC_NODE":95.7506,"ARG_OF_PERICENTER":122.1106,"MEAN_ANOMALY":238.1955,"EPHEMERIS_TYPE":0,"CLASSIFICATION_TYPE":"U","NORAD_CAT_ID":44412,"ELEMENT_SET_NO":999,"REV_AT_EPOCH":21029,"BSTAR":0.00081754,"MEAN_MOTION_DOT":0.00022069,"MEAN_MOTION_DDOT":0},{"OBJECT_NAME":"JAISAT-1","OBJECT_ID":"2019-038F","EPOCH":"2023-04-26T17:24:37.736928","MEAN_MOTION":15.27846956,"ECCENTRICITY":0.0018127,"INCLINATION":97.673,"RA_OF_ASC_NODE":96.8358,"ARG_OF_PERICENTER":118.7376,"MEAN_ANOMALY":241.5687,"EPHEMERIS_TYPE":0,"CLASSIFICATION_TYPE":"U","NORAD_CAT_ID":44419,"ELEMENT_SET_NO":999,"REV_AT_EPOCH":21067,"BSTAR":0.00076083,"MEAN_MOTION_DOT":0.00020743,"MEAN_MOTION_DDOT":0},{"OBJECT_NAME":"DUCHIFAT-3","OBJECT_ID":"2019-089C","EPOCH":"2023-04-27T04:15:31.576320","MEAN_MOTION":15.05440146,"ECCENTRICITY":0.0010885,"INCLINATION":36.9637,"RA_OF_ASC_NODE":35.9622,"ARG_OF_PERICENTER":263.704,"MEAN_ANOMALY":242.5983,"EPHEMERIS_TYPE":0,"CLASSIFICATION_TYPE":"U","NORAD_CAT_ID":44854,"ELEMENT_SET_NO":999,"REV_AT_EPOCH":18514,"BSTAR":0.00059424,"MEAN_MOTION_DOT":8.64e-5,"MEAN_MOTION_DDOT":0},{"OBJECT_NAME":"EYESAT-NANO","OBJECT_ID":"2019-092E","EPOCH":"2023-04-26T19:11:51.609696","MEAN_MOTION":15.37754313,"ECCENTRICITY":0.0006955,"INCLINATION":97.4611,"RA_OF_ASC_NODE":306.2536,"ARG_OF_PERICENTER":314.6087,"MEAN_ANOMALY":45.459,"EPHEMERIS_TYPE":0,"CLASSIFICATION_TYPE":"U","NORAD_CAT_ID":44877,"ELEMENT_SET_NO":999,"REV_AT_EPOCH":18619,"BSTAR":0.0010582,"MEAN_MOTION_DOT":0.00039342,"MEAN_MOTION_DDOT":0},{"OBJECT_NAME":"M2 PATHFINDER","OBJECT_ID":"2020-037E","EPOCH":"2023-04-26T18:07:40.094688","MEAN_MOTION":14.93739791,"ECCENTRICITY":0.0013214,"INCLINATION":97.753,"RA_OF_ASC_NODE":292.1431,"ARG_OF_PERICENTER":77.4344,"MEAN_ANOMALY":282.8328,"EPHEMERIS_TYPE":0,"CLASSIFICATION_TYPE":"U","NORAD_CAT_ID":45727,"ELEMENT_SET_NO":999,"REV_AT_EPOCH":15356,"BSTAR":0.00048997,"MEAN_MOTION_DOT":5.142e-5,"MEAN_MOTION_DDOT":0},{"OBJECT_NAME":"NETSAT-4","OBJECT_ID":"2020-068U","EPOCH":"2023-04-26T14:19:20.001792","MEAN_MOTION":15.06960891,"ECCENTRICITY":0.0011614,"INCLINATION":97.758,"RA_OF_ASC_NODE":61.9564,"ARG_OF_PERICENTER":355.1166,"MEAN_ANOMALY":5.0008,"EPHEMERIS_TYPE":0,"CLASSIFICATION_TYPE":"U","NORAD_CAT_ID":46504,"ELEMENT_SET_NO":999,"REV_AT_EPOCH":14113,"BSTAR":0.00065489,"MEAN_MOTION_DOT":9.752e-5,"MEAN_MOTION_DDOT":0}]
